[{"OBJECT_NAME":"UM5-EOSAT","OBJECT_ID":"2024-149CR","EPOCH":"2026-03-09T17:21:09.122400","MEAN_MOTION":15.00894746,"ECCENTRICITY":0.00087192,"INCLINATION":97.6855,"RA_OF_ASC_NODE":148.6787,"ARG_OF_PERICENTER":107.8964,"MEAN_ANOMALY":252.3212,"EPHEMERIS_TYPE":0,"CLASSIFICATION_TYPE":"U","NORAD_CAT_ID":60555,"ELEMENT_SET_NO":999,"REV_AT_EPOCH":8529,"BSTAR":0.00036077282,"MEAN_MOTION_DOT":4.537e-5,"MEAN_MOTION_DDOT":0},{"OBJECT_NAME":"STARLINK-34005","OBJECT_ID":"2025-098K","EPOCH":"2026-03-09T22:14:26.938752","MEAN_MOTION":14.9827392,"ECCENTRICITY":0.00029803,"INCLINATION":70.0012,"RA_OF_ASC_NODE":274.0234,"ARG_OF_PERICENTER":273.6783,"MEAN_ANOMALY":86.4036,"EPHEMERIS_TYPE":0,"CLASSIFICATION_TYPE":"U","NORAD_CAT_ID":63935,"ELEMENT_SET_NO":999,"REV_AT_EPOCH":4659,"BSTAR":-0.0027839983,"MEAN_MOTION_DOT":-0.00033107,"MEAN_MOTION_DDOT":0}]
